RS-44 & BREEZE-KM R/B   
1 44909U 19096E   24115.55776080  .00000039  00000+0  10775-3 0  9996
2 44909  82.5186 140.4133 0217583 176.2938 183.9839 12.79728999202116
BY70-2                  
1 45857U 20042B   24115.89896108  .00134808  00000+0  65734-2 0  9999
2 45857  97.9083 206.5115 0003121  16.0861 344.0470 15.17696014206433
SALSAT                  
1 46495U 20068K   24115.82609497  .00014066  00000+0  81588-3 0  9991
2 46495  97.8127  73.8303 0015661 130.8848 229.3741 15.12176346196245
UVSQ-SAT                
1 47438U 21006AB  24115.41260959  .00067787  00000+0  15825-2 0  9991
2 47438  97.3320 175.3926 0006824  60.1815 300.0110 15.41941477180430
LEDSAT                  
1 49069U 21073D   24115.66776259  .00027194  00000+0  11609-2 0  9993
2 49069  97.4408 187.2306 0021331 112.2871 248.0630 15.22654720148304
XW-3 (CAS-9)            
1 50466U 21131B   24115.88584970  .00002025  00000+0  66316-3 0  9994
2 50466  98.5270 201.2107 0002985 288.4935  71.5928 14.39523757122339
TEVEL-3                 
1 50988U 22002E   24115.89089923  .00140951  00000+0  22374-2 0  9996
2 50988  97.3832 189.6649 0005279 198.0597 162.0469 15.52842543126746
TEVEL-8                 
1 50989U 22002F   24115.86298880  .00140514  00000+0  22422-2 0  9997
2 50989  97.3857 189.7246 0005280 199.5617 160.5434 15.52697667126738
TEVEL-5                 
1 50998U 22002Q   24115.85609003  .00163162  00000+0  22826-2 0  9991
2 50998  97.3820 190.7044 0005597 192.9127 167.1985 15.56239114126816
TEVEL-6                 
1 50999U 22002R   24115.85971264  .00161710  00000+0  22730-2 0  9994
2 50999  97.3815 190.6830 0005517 193.0000 167.1114 15.56116248126813
TEVEL-1                 
1 51013U 22002AF  24115.85161327  .00137624  00000+0  21987-2 0  9993
2 51013  97.3819 189.4974 0005246 193.4409 166.6705 15.52675051126735
TEVEL-7                 
1 51062U 22002CG  24115.85402445  .00139710  00000+0  22204-2 0  9997
2 51062  97.3838 189.6904 0005252 193.3803 166.7312 15.52813216126731
TEVEL-4                 
1 51063U 22002CH  24115.88521941  .00138535  00000+0  22270-2 0  9991
2 51063  97.3842 189.6399 0005332 193.2544 166.8570 15.52498425126733
TEVEL-2                 
1 51069U 22002CP  24115.88946454  .00140642  00000+0  22295-2 0  9996
2 51069  97.3828 189.6311 0005235 196.6655 163.4427 15.52881291126741
GREENCUBE               
1 53106U 22080B   24114.18200038 -.00000003  00000+0  00000+0 0  9993
2 53106  70.1426 211.6253 0007954 118.4778 241.6683  6.42557291 41734
KUZBASS-300 (RS34S)     
1 53375U 22096F   24115.68341519  .00432900  00000+0  18173-2 0  9991
2 53375  97.3832  35.1309 0007634 124.4923 235.7069 15.84424544 96089
UTMN (RS23S)            
1 53376U 22096G   24115.42989221  .00620643  15818-3  17763-2 0  9996
2 53376  97.3792  35.8841 0008290 134.6195 225.5757 15.93146544 96112
MIET-AIS (RS28S)        
1 53377U 22096H   24115.70586978  .00239460  00000+0  16820-2 0  9999
2 53377  97.3899  34.1003 0006078 119.7555 240.4314 15.73440042 96011
KAI-1 (RS26S)           
1 53378U 22096J   24115.93629946  .00108254  00000+0  13476-2 0  9998
2 53378  97.3985  32.2357 0004559 117.4575 242.7145 15.59565459 95906
ISOI (RS19S)            
1 53381U 22096M   24115.79210569  .00248025  00000+0  15654-2 0  9994
2 53381  97.3919  35.0507 0005553 114.7871 245.3972 15.75909018 96087
CUBESX-HSE-2 (RS21S)    
1 53383U 22096P   24115.43579966  .00615661  15347-3  18567-2 0  9990
2 53383  97.3800  36.0549 0007321 128.5388 231.6544 15.92150601 96129
SIREN (RS30S)           
1 53384U 22096Q   24115.94547976  .00162898  00000+0  14991-2 0  9995
2 53384  97.3947  33.8191 0003931 100.2448 259.9256 15.67141264 96015
CAS-5A (FO-118)         
1 54684U 22167C   24115.91190811  .00041974  00000+0  15904-2 0  9993
2 54684  97.5990 259.6354 0010054 331.4308  28.6378 15.26726541 76167
STRATOSAT-TK 1 (RS52S)  
1 57167U 23091B   24115.92675530  .00024961  00000+0  15141-2 0  9996
2 57167  97.6165 169.2043 0014096 302.8265  57.1606 15.10443168 45516
UMKA 1 (RS40S)          
1 57172U 23091G   24115.88735049  .00010857  00000+0  73165-3 0  9999
2 57172  97.6170 168.4877 0015664 305.5244  54.4522 15.06750061 45462
CUBESX-HSE 3 (RS42S)    
1 57178U 23091N   24115.88560394  .00015027  00000+0  98247-3 0  9996
2 57178  97.6208 168.7883 0016092 298.9827  60.9788 15.07782890 45471
MONITOR-4 (RS57S)       
1 57182U 23091S   24115.92437924  .00013293  00000+0  87884-3 0  9996
2 57182  97.6191 168.6915 0016261 300.4086  59.5534 15.07398617 45479
MONITOR-2 (RS39S)       
1 57184U 23091U   24115.92313687  .00007993  00000+0  53737-3 0  9997
2 57184  97.6197 168.8663 0012710 294.5251  65.4651 15.06962847 45489
SVYATOBOR 1 (RS60S)     
1 57187U 23091X   24115.92866129  .00012306  00000+0  79718-3 0  9995
2 57187  97.6200 169.1709 0012117 291.1595  68.8337 15.08219379 45505
VIZARD-METEO (RS38S)    
1 57189U 23091Z   24115.86266235  .00015195  00000+0  95319-3 0  9996
2 57189  97.6193 169.3827 0011054 288.4066  71.5960 15.09357743 45515
NANOZOND 1 (RS49S)      
1 57190U 23091AA  24115.74538881  .00020886  00000+0  12393-2 0  9997
2 57190  97.6170 169.5898 0009502 293.1185  66.9043 15.11327578 45529
POLYTECH-UNIVERSE 3 (R*)
1 57191U 23091AB  24115.92499425  .00009515  00000+0  63893-3 0  9996
2 57191  97.6164 168.5823 0018340 312.5313  47.4365 15.06880143 45470
UTMN 2 (RS27S)          
1 57203U 23091AP  24115.90434255  .00015391  00000+0  97568-3 0  9993
2 57203  97.6186 169.3250 0011725 288.2884  71.7068 15.08965133 45513
ARCCUBE 1 (RS25S)       
1 57205U 23091AR  24115.88907537  .00026928  00000+0  15598-2 0  9990
2 57205  97.6140 169.7815 0009771 293.5589  66.4615 15.12140158 45555
KUZGTU 1 (RS47S)        
1 57217U 23091AV  24115.88985259  .00014814  00000+0  97143-3 0  9998
2 57217  97.6181 168.6859 0016101 300.3276  59.6358 15.07676778 45479
HADES-D (SO-121)        
1 58567U 23174CY  24115.18851319  .00069940  00000+0  28672-2 0  9991
2 58567  97.4580 190.9769 0012942  65.1079 295.1502 15.23912733 25549
CUTE-1 (CO-55)          
1 27844U 03031E   24115.94208358  .00001294  00000+0  59152-3 0  9994
2 27844  98.6791 123.7134 0008672 303.6045  56.4305 14.23187472 80215
CUBESAT XI-IV (CO-57)   
1 27848U 03031J   24115.92581361  .00001102  00000+0  51199-3 0  9995
2 27848  98.6821 123.9714 0008822 321.3490  38.7055 14.22639728 79967
CUBESAT XI-V            
1 28895U 05043F   24115.30966849  .00005730  00000+0  10207-2 0  9998
2 28895  98.1932 251.0979 0016350 164.0772 196.0950 14.67357922986550
CUTE-1.7+APD II (CO-65) 
1 32785U 08021C   24115.85604929  .00011916  00000+0  10657-2 0  9990
2 32785  97.7515  81.6738 0012896 136.1774 224.0473 14.95960708867506
AAUSAT-II               
1 32788U 08021F   24115.91656316  .00038235  00000+0  20583-2 0  9999
2 32788  97.5930  96.1162 0006038  28.4886 331.6674 15.14707366870253
SEEDS II (CO-66)        
1 32791U 08021J   24115.48346007  .00016997  00000+0  12816-2 0  9999
2 32791  97.6839  87.0203 0007118 117.9470 242.2476 15.02501910868454
SWISSCUBE               
1 35932U 09051B   24115.67011125  .00003407  00000+0  73817-3 0  9995
2 35932  98.4782 357.9036 0008423 118.3468 241.8581 14.58838714774751
BEESAT-1                
1 35933U 09051C   24115.66555178  .00002958  00000+0  64555-3 0  9995
2 35933  98.4710 358.8764 0006558 127.8326 232.3467 14.58603126774829
ITUPSAT1                
1 35935U 09051E   24115.91673499  .00002847  00000+0  63548-3 0  9990
2 35935  98.4809 358.9448 0008687 134.8483 225.3422 14.57577857774505
TISAT 1                 
1 36799U 10035E   24115.64908865  .00015262  00000+0  11888-2 0  9995
2 36799  98.0918   2.8018 0006639  54.9751 305.2094 15.01301698749024
M-CUBED & EXP-1 PRIME   
1 37855U 11061F   24115.92034568  .00226036  00000+0  22505-2 0  9991
2 37855 101.6887 267.5800 0053096 147.8238 212.6264 15.63164773684672
AEROCUBE 4.5A           
1 38767U 12048K   24115.43439351  .00023827  00000+0  13584-2 0  9995
2 38767  64.6590 126.7626 0106051  37.2991 323.5431 15.08045189252356
AEROCUBE 4.5B           
1 38768U 12048L   24115.93533358  .00058750  00000+0  23415-2 0  9990
2 38768  64.6581  54.3067 0086837  25.8471 334.6954 15.21389344253316
STRAND-1                
1 39090U 13009E   24115.48729372  .00001254  00000+0  44609-3 0  9996
2 39090  98.3829 305.2531 0009874  57.7543 302.4599 14.35998467584533
BRITE-AUSTRIA           
1 39091U 13009F   24115.52336173  .00000812  00000+0  29520-3 0  9999
2 39091  98.3868 304.5547 0011430  63.2534 296.9821 14.35755996584565
NEE-01 PEGASO           
1 39151U 13018B   24115.79959483  .00008512  00000+0  99568-3 0  9994
2 39151  98.0293 232.4286 0014685 209.7983 150.2397 14.85254499594041
ESTCUBE 1               
1 39161U 13021C   24115.65891510  .00005379  00000+0  78689-3 0  9999
2 39161  97.8314 183.7591 0009805  51.0185 309.1897 14.76032602589190
POPACS 1                
1 39268U 13055D   24115.57364697  .00038634  00000+0  71687-3 0  9997
2 39268  80.9866 212.5467 0424803 264.4647  90.7988 14.87617233552553
POPACS 2                
1 39269U 13055E   24115.81628381  .00036392  00000+0  84498-3 0  9991
2 39269  80.9996 297.2548 0559682 125.5540 239.9180 14.54897302547838
POPACS 3                
1 39270U 13055F   24115.06602906  .00010354  00000+0  29086-3 0  9997
2 39270  81.0112 346.9965 0632200 265.0787  87.7986 14.35606136525198
ZACUBE-1 (TSHEPISOSAT)  
1 39417U 13066B   24115.82715645  .00012561  00000+0  13237-2 0  9993
2 39417  97.7303  73.0355 0050468 339.2775  20.6395 14.88525107563647
WNISAT-1                
1 39423U 13066H   24115.86765951  .00003479  00000+0  67217-3 0  9995
2 39423  97.6737 314.5136 0170628 176.2301 184.0230 14.55063767552687
